*******************************************************************************
 Revised: Apr 08, 2026  International Space Station (ISS) / (Earth)     -125544
 
 ISS (International Space Station) (1998-067A)
  Large multi-module manned earth-orbiting space station used for research and
  development purposes.
 
  Trajectory is TLE-based. Predicts run for 4 weeks into future, but are of
  low accuracy for times more than a few days past the revision date above.
 
 Launched: 1998-Nov-20 (subsequent assembly in orbit through 2004)
*******************************************************************************


*******************************************************************************
Ephemeris / WWW_USER Wed Apr  8 22:40:13 2026 Pasadena, USA      / Horizons
*******************************************************************************
Target body name: International Space Station (spacecraft) (-125544) {source: iss}
Center body name: Earth (399)                     {source: DE441}
Center-site name: BODY CENTER
*******************************************************************************
Start time      : A.D. 2026-Mar-01 00:00:00.0000 TDB
Stop  time      : A.D. 2026-Mar-01 02:00:00.0000 TDB
Step-size       : 1 minutes
*******************************************************************************
Center geodetic : 0.0, 0.0, 0.0                   {E-lon(deg),Lat(deg),Alt(km)}
Center cylindric: 0.0, 0.0, 0.0                   {E-lon(deg),Dxy(km),Dz(km)}
Center radii    : 6378.137, 6378.137, 6356.752 km {Equator_a, b, pole_c}
Output units    : KM-S
Calendar mode   : Mixed Julian/Gregorian
Output type     : GEOMETRIC cartesian states
Output format   : 3 (position, velocity, LT, range, range-rate)
EOP file        : eop.260408.p260705
EOP coverage    : DATA-BASED 1962-JAN-20 TO 2026-APR-08. PREDICTS-> 2026-JUL-04
Reference frame : Ecliptic of J2000.0
*******************************************************************************
JDTDB
   X     Y     Z
   VX    VY    VZ
   LT    RG    RR
*******************************************************************************
$$SOE
2461100.554166667 = A.D. 2026-Mar-01 01:18:00.0000 TDB 
 X =-4.965428323503891E+02 Y = 4.625490788945464E+03 Z =-4.971253114298991E+03
 VX=-5.325382501280501E+00 VY= 3.740618904654911E+00 VZ= 4.018212389941241E+00
 LT= 2.271056569334759E-02 RG= 6.808456311779146E+03 RR=-4.269992654327580E-03
2461100.554861111 = A.D. 2026-Mar-01 01:19:00.0000 TDB 
 X =-8.146935400172821E+02 Y = 4.839248594485696E+03 Z =-4.719025694060310E+03
 VX=-5.275656660022333E+00 VY= 3.381924524954943E+00 VZ= 4.386189833834290E+00
 LT= 2.270962959052911E-02 RG= 6.808175675214255E+03 RR=-5.071200013474234E-03
2461100.555555556 = A.D. 2026-Mar-01 01:20:00.0000 TDB 
 X =-1.129138915611282E+03 Y = 5.031010149336376E+03 Z =-4.445307833655341E+03
 VX=-5.201914685655166E+00 VY= 3.007685310310381E+00 VZ= 4.734288350314125E+00
 LT= 2.270853294767830E-02 RG= 6.807846909958464E+03 RR=-5.874024712802088E-03
2461100.556250000 = A.D. 2026-Mar-01 01:21:00.0000 TDB 
 X =-1.438447002636729E+03 Y = 5.199893181299754E+03 Z =-4.151340794836795E+03
 VX=-5.104474734724320E+00 VY= 2.619593605524383E+00 VZ= 5.060905602354993E+00
 LT= 2.270727607160668E-02 RG= 6.807470107991548E+03 RR=-6.672166871398250E-03
2461100.556944444 = A.D. 2026-Mar-01 01:22:00.0000 TDB 
 X =-1.741208210142599E+03 Y = 5.345119001501320E+03 Z =-3.838459152753469E+03
 VX=-4.983763998774088E+00 VY= 2.219408589979603E+00 VZ= 5.364534667181368E+00
 LT= 2.270586056474207E-02 RG= 6.807045749709292E+03 RR=-7.458944290773676E-03
2461100.557638889 = A.D. 2026-Mar-01 01:23:00.0000 TDB 
 X =-2.036041812271905E+03 Y = 5.466016277876506E+03 Z =-3.508084843211066E+03
 VX=-4.840317214746578E+00 VY= 1.808948331937517E+00 VZ= 5.643771574918742E+00
 LT= 2.270428939334684E-02 RG= 6.806574724374779E+03 RR=-8.227377307092335E-03
2461100.558333333 = A.D. 2026-Mar-01 01:24:00.0000 TDB 
 X =-2.321602341400450E+03 Y = 5.562024319900220E+03 Z =-3.161720770862592E+03
 VX=-4.674774603907390E+00 VY= 1.390081446253820E+00 VZ= 5.897322403383424E+00
 LT= 2.270256693816653E-02 RG= 6.806058345302478E+03 RR=-8.970281401751122E-03
2461100.559027778 = A.D. 2026-Mar-01 01:25:00.0000 TDB 
 X =-2.596585840570835E+03 Y = 5.632695852157763E+03 Z =-2.800944006714847E+03
 VX=-4.487879238517218E+00 VY= 9.647184018824966E-01 VZ= 6.124009869560543E+00
 LT= 2.270069902609201E-02 RG= 6.805498359350331E+03 RR=-9.680366083436386E-03
2461100.559722222 = A.D. 2026-Mar-01 01:26:00.0000 TDB 
 X =-2.859735941065682E+03 Y = 5.677699257312216E+03 Z =-2.427398606794034E+03
 VX=-4.280473842042561E+00 VY= 5.348025315403493E-01 VZ= 6.322779361597113E+00
 LT= 2.269869294172157E-02 RG= 6.804896950385959E+03 RR=-1.035033842605847E-02
2461100.560416667 = A.D. 2026-Mar-01 01:27:00.0000 TDB 
 X =-3.109849731500231E+03 Y = 5.696820272312389E+03 Z =-2.042788087036809E+03
 VX=-4.053497035411533E+00 VY= 1.023008010532718E-01 VZ= 6.492704359698342E+00
 LT= 2.269655741803498E-02 RG= 6.804256736490839E+03 RR=-1.097300954528832E-02
2461100.561111111 = A.D. 2026-Mar-01 01:28:00.0000 TDB 
 X =-3.345783385748430E+03 Y = 5.689963125250553E+03 Z =-1.648867592395398E+03
 VX=-3.807979048474520E+00 VY=-3.308055999583193E-01 VZ= 6.632991200043650E+00
 LT= 2.269430260573637E-02 RG= 6.803580760769513E+03 RR=-1.154140222361559E-02
2461100.561805556 = A.D. 2026-Mar-01 01:29:00.0000 TDB 
 X =-3.566457518343313E+03 Y = 5.657151104058001E+03 Z =-1.247435800698462E+03
 VX=-3.545036922223523E+00 VY=-7.625307814133784E-01 VZ= 6.742983142581083E+00
 LT= 2.269194002118026E-02 RG= 6.802872475738202E+03 RR=-1.204885785179298E-02
2461100.562500000 = A.D. 2026-Mar-01 01:30:00.0000 TDB 
 X =-3.770862237689476E+03 Y = 5.598526552147339E+03 Z =-8.403266039422472E+02
 VX=-3.265869233270458E+00 VY=-1.190893723738146E+00 VZ= 6.822163711120377E+00
 LT= 2.268948247315937E-02 RG= 6.802135721376366E+03 RR=-1.248914084425360E-02
2461100.563194444 = A.D. 2026-Mar-01 01:31:00.0000 TDB 
 X =-3.958061869463959E+03 Y = 5.514350290099605E+03 Z =-4.294006113528058E+02
 VX=-2.971750377407005E+00 VY=-1.613927829631459E+00 VZ= 6.870159282305836E+00
 LT= 2.268694396919800E-02 RG= 6.801374697034144E+03 RR=-1.285653870822244E-02
2461100.563888889 = A.D. 2026-Mar-01 01:32:00.0000 TDB 
 X =-4.127199324919640E+03 Y = 5.405000466475056E+03 Z =-1.653651973273668E+01
 VX=-2.664024453617245E+00 VY=-2.029690390630981E+00 VZ= 6.886740908566118E+00
 LT= 2.268433960235302E-02 RG= 6.800593927496155E+03 RR=-1.314595600086762E-02
2461100.564583333 = A.D. 2026-Mar-01 01:33:00.0000 TDB 
 X =-4.277500091394253E+03 Y = 5.270970844724239E+03 Z = 3.963776027327881E+02
 VX=-2.344098793564680E+00 VY=-2.436271904572950E+00 VZ= 6.871825368754775E+00
 LT= 2.268168541987228E-02 RG= 6.799798223606271E+03 RR=-1.335300049553570E-02
2461100.565277778 = A.D. 2026-Mar-01 01:34:00.0000 TDB 
 X =-4.408275825111060E+03 Y = 5.112868536918636E+03 Z = 8.074530728841567E+02
 VX=-2.013437184240748E+00 VY=-2.831805183283703E+00 VZ= 6.825475448656311E+00
 LT= 2.267899827538722E-02 RG= 6.798992637956096E+03 RR=-1.347405999557208E-02
2461100.565972222 = A.D. 2026-Mar-01 01:35:00.0000 TDB 
 X =-4.518927529275074E+03 Y = 4.931411198542950E+03 Z = 1.214809343229700E+03
 VX=-1.673552833088500E+00 VY=-3.214474194115249E+00 VZ= 6.747899461588997E+00
 LT= 2.267629566662099E-02 RG= 6.798182416231056E+03 RR=-1.350636838092869E-02
2461100.566666667 = A.D. 2026-Mar-01 01:36:00.0000 TDB 
 X =-4.608948303456654E+03 Y = 4.727423701836836E+03 Z = 1.616582701655316E+03
 VX=-1.326001125493843E+00 VY=-3.582522584068769E+00 VZ= 6.639450026758080E+00
 LT= 2.267359556086467E-02 RG= 6.797372944889507E+03 RR=-1.344805964673090E-02
2461100.567361111 = A.D. 2026-Mar-01 01:37:00.0000 TDB 
 X =-4.677925653251435E+03 Y = 4.501834308095914E+03 Z = 2.010934876275447E+03
 VX=-9.723722240931564E-01 VY=-3.934261841044487E+00 VZ= 6.500622129597855E+00
 LT= 2.267091621071228E-02 RG= 6.796569695921482E+03 RR=-1.329820889059337E-02
2461100.568055556 = A.D. 2026-Mar-01 01:38:00.0000 TDB 
 X =-4.725543352149652E+03 Y = 4.255670361905918E+03 Z = 2.396061503112339E+03
 VX=-6.142835579496919E-01 VY=-4.268079052993226E+00 VZ= 6.332050493922258E+00
 LT= 2.266827596274030E-02 RG= 6.795778169492231E+03 RR=-1.305685942464849E-02
2461100.568750000 = A.D. 2026-Mar-01 01:39:00.0000 TDB 
 X =-4.751582850384794E+03 Y = 3.990053532467817E+03 Z = 2.770200416215020E+03
 VX=-2.533722474032444E-01 VY=-4.582444232194360E+00 VZ= 6.134506300156373E+00
 LT= 2.266569306196836E-02 RG= 6.795003835321041E+03 RR=-1.272503542424270E-02
2461100.569444444 = A.D. 2026-Mar-01 01:40:00.0000 TDB 
 X =-4.755924228211862E+03 Y = 3.706194628968620E+03 Z = 3.131639721993749E+03
 VX= 1.087124925651005E-01 VY=-4.875917178310265E+00 VZ= 5.908893287169120E+00
 LT= 2.266318545504073E-02 RG= 6.794252073676508E+03 RR=-1.230473977435607E-02
2461100.570138889 = A.D. 2026-Mar-01 01:41:00.0000 TDB 
 X =-4.738546693549859E+03 Y = 3.405388018367827E+03 Z = 3.478725621877972E+03
 VX= 4.703169311292865E-01 VY=-5.147153860043214E+00 VZ= 5.656243277245675E+00
 LT= 2.266077059511919E-02 RG= 6.793528116884903E+03 RR=-1.179893703262774E-02
2461100.570833333 = A.D. 2026-Mar-01 01:42:00.0000 TDB 
 X =-4.699528626182127E+03 Y = 3.089005675022252E+03 Z = 3.809869949831129E+03
 VX= 8.297903471452166E-01 VY=-5.394912300934176E+00 VZ= 5.377711164552411E+00
 LT= 2.265846525147700E-02 RG= 6.792836992247878E+03 RR=-1.121152168952238E-02
2461100.571527778 = A.D. 2026-Mar-01 01:43:00.0000 TDB 
 X =-4.639047172723635E+03 Y = 2.758490892295253E+03 Z = 4.123557393700955E+03
 VX= 1.185492470054238E+00 VY=-5.618057959908485E+00 VZ= 5.074569407137135E+00
 LT= 2.265628532672911E-02 RG= 6.792183467249454E+03 RR=-1.054727216676372E-02
